NORAD_CAT_ID,OBJECT_NAME,OBJECT_TYPE,EPOCH,MEAN_MOTION,ECCENTRICITY,INCLINATION,RA_OF_ASC_NODE,ARG_OF_PERICENTER,MEAN_ANOMALY,BSTAR,MEAN_MOTION_DOT,MEAN_MOTION_DDOT,TLE_LINE0,TLE_LINE1,TLE_LINE2,SEMIMAJOR_AXIS,PERIOD,APOGEE,PERIGEE,DECAYED
51892.0,STARLINK-3587,PAYLOAD,2024-05-10 15:41:55,15.08846852,0.0001334,53.2156,118.0472,90.1573,269.9572,0.0002076,3.018e-05,0.0,0 STARLINK-3587,1 51892U 22022AS  24131.65411964  .00003018  00000-0  20760-3 0  9990,2 51892  53.2156 118.0472 0001334  90.1573 269.9572 15.08846852122392,6917.859,95.437,540.647,538.802,0.0
51892.0,STARLINK-3587,PAYLOAD,2024-05-10 22:03:28,15.08845325,0.0001492,53.2163,116.8606,97.319,262.7972,0.00022942,3.366e-05,0.0,0 STARLINK-3587,1 51892U 22022AS  24131.91908087  .00003366  00000-0  22942-3 0  9996,2 51892  53.2163 116.8606 0001492  97.3190 262.7972 15.08845325122438,6917.864,95.437,540.761,538.697,0.0
51892.0,STARLINK-3587,PAYLOAD,2024-05-11 15:32:41,15.08883373,0.0001272,53.2168,113.5899,73.5966,286.5166,0.00095924,0.00015029,0.0,0 STARLINK-3587,1 51892U 22022AS  24132.64770411  .00015029  00000-0  95924-3 0  9994,2 51892  53.2168 113.5899 0001272  73.5966 286.5166 15.08883373122540,6917.748,95.435,540.493,538.733,0.0
51892.0,STARLINK-3587,PAYLOAD,2024-05-12 05:51:12,15.08785294,0.0001489,53.2162,110.914,97.4378,262.6784,-0.0015855,-0.00025395,0.0,0 STARLINK-3587,1 51892U 22022AS  24133.24389309 -.00025395  00000-0 -15855-2 0  9996,2 51892  53.2162 110.9140 0001489  97.4378 262.6784 15.08785294122630,6918.048,95.441,540.943,538.883,0.0
51892.0,STARLINK-3587,PAYLOAD,2024-05-12 07:26:35,15.08784226,0.0001512,53.2164,110.6161,87.1527,272.9638,-0.0015027,-0.00024087,0.0,0 STARLINK-3587,1 51892U 22022AS  24133.31013569 -.00024087  00000-0 -15027-2 0  9994,2 51892  53.2164 110.6161 0001512  87.1527 272.9638 15.08784226122648,6918.051,95.441,540.962,538.87,0.0
51892.0,STARLINK-3587,PAYLOAD,2024-05-12 21:45:05,15.08789848,9.51e-05,53.2175,107.9369,75.493,284.6168,-0.00059714,-9.765e-05,0.0,0 STARLINK-3587,1 51892U 22022AS  24133.90630988 -.00009765  00000-0 -59714-3 0  9997,2 51892  53.2175 107.9369 0000951  75.4930 284.6168 15.08789848122736,6918.034,95.441,540.557,539.241,0.0
51892.0,STARLINK-3587,PAYLOAD,2024-05-13 04:06:38,15.08803642,0.0002143,53.2168,106.7547,81.0217,279.1017,7.1464e-05,8.48e-06,0.0,0 STARLINK-3587,1 51892U 22022AS  24134.17127497  .00000848  00000-0  71464-4 0  9991,2 51892  53.2168 106.7547 0002143  81.0217 279.1017 15.08803642122774,6917.992,95.44,541.339,538.374,0.0
51892.0,STARLINK-3587,PAYLOAD,2024-05-13 07:17:24,15.08825885,0.000135,53.2157,106.1527,99.4011,260.7134,0.00086448,0.00013492,0.0,0 STARLINK-3587,1 51892U 22022AS  24134.30375253  .00013492  00000-0  86448-3 0  9997,2 51892  53.2157 106.1527 0001350  99.4011 260.7134 15.08825885122799,6917.924,95.438,540.722,538.855,0.0
51892.0,STARLINK-3587,PAYLOAD,2024-05-13 21:35:52,15.0884719,0.0001364,53.2158,103.4774,99.9951,260.1195,0.00045957,7.035e-05,0.0,0 STARLINK-3587,1 51892U 22022AS  24134.89991162  .00007035  00000-0  45957-3 0  9990,2 51892  53.2158 103.4774 0001364  99.9951 260.1195 15.08847190122881,6917.858,95.437,540.667,538.78,0.0
51892.0,STARLINK-3587,PAYLOAD,2024-05-14 05:32:47,15.08854874,0.0001415,53.216,101.9909,98.3959,261.7193,0.00063784,9.882e-05,0.0,0 STARLINK-3587,1 51892U 22022AS  24135.23110893  .00009882  00000-0  63784-3 0  9993,2 51892  53.2160 101.9909 0001415  98.3959 261.7193 15.08854874122933,6917.835,95.437,540.679,538.721,0.0
51892.0,STARLINK-3587,PAYLOAD,2024-05-14 15:05:06,15.08863233,0.0001366,53.2157,100.2066,99.0557,261.059,0.00064168,9.946e-05,0.0,0 STARLINK-3587,1 51892U 22022AS  24135.62854314  .00009946  00000-0  64168-3 0  9997,2 51892  53.2157 100.2066 0001366  99.0557 261.0590 15.08863233122991,6917.809,95.436,540.619,538.729,0.0
51892.0,STARLINK-3587,PAYLOAD,2024-05-15 06:58:56,15.08874129,0.0001448,53.2163,97.2324,98.9806,261.135,0.00062751,9.722e-05,0.0,0 STARLINK-3587,1 51892U 22022AS  24136.29093146  .00009722  00000-0  62751-3 0  9997,2 51892  53.2163  97.2324 0001448  98.9806 261.1350 15.08874129123099,6917.776,95.435,540.643,538.639,0.0
51892.0,STARLINK-3587,PAYLOAD,2024-05-15 21:17:24,15.08868969,0.0001912,53.2187,94.5522,111.006,249.1137,0.00025821,3.827e-05,0.0,0 STARLINK-3587,1 51892U 22022AS  24136.88708357  .00003827  00000-0  25821-3 0  9996,2 51892  53.2187  94.5522 0001912 111.0060 249.1137 15.08868969123184,6917.792,95.436,540.98,538.334,0.0
51892.0,STARLINK-3587,PAYLOAD,2024-05-16 03:38:56,15.08852602,0.0001396,53.2165,93.366,89.1865,270.9287,-3.6848e-05,-8.75e-06,0.0,0 STARLINK-3587,1 51892U 22022AS  24137.15204644 -.00000875  00000-0 -36848-4 0  9991,2 51892  53.2165  93.3660 0001396  89.1865 270.9287 15.08852602123224,6917.842,95.437,540.673,538.741,0.0
51892.0,STARLINK-3587,PAYLOAD,2024-05-16 06:49:42,15.0885283,0.000143,53.2166,92.7705,88.2829,271.8327,1.1162e-05,-1.1e-06,0.0,0 STARLINK-3587,1 51892U 22022AS  24137.28452453 -.00000110  00000-0  11162-4 0  9991,2 51892  53.2166  92.7705 0001430  88.2829 271.8327 15.08852830123247,6917.841,95.437,540.695,538.717,0.0
51892.0,STARLINK-3587,PAYLOAD,2024-05-17 03:29:43,15.0884281,0.0001349,53.2171,88.9029,102.9827,257.1316,-4.9065e-05,-1.069e-05,0.0,0 STARLINK-3587,1 51892U 22022AS  24138.14564675 -.00001069  00000-0 -49065-4 0  9995,2 51892  53.2171  88.9029 0001349 102.9827 257.1316 15.08842810123376,6917.872,95.437,540.67,538.804,0.0
51892.0,STARLINK-3587,PAYLOAD,2024-05-18 12:52:48,15.08860851,0.0001127,53.2174,82.6604,73.1098,287.0018,0.00037714,5.723e-05,0.0,0 STARLINK-3587,1 51892U 22022AS  24139.53667628  .00005723  00000-0  37714-3 0  9997,2 51892  53.2174  82.6604 0001127  73.1098 287.0018 15.08860851123581,6917.817,95.436,540.461,538.902,0.0
51892.0,STARLINK-3587,PAYLOAD,2024-05-18 20:49:46,15.0881172,0.0001092,53.2167,81.1772,74.525,285.5863,-0.00023611,-4.04e-05,0.0,0 STARLINK-3587,1 51892U 22022AS  24139.86790390 -.00004040  00000-0 -23611-3 0  9990,2 51892  53.2167  81.1772 0001092  74.5250 285.5863 15.08811720123637,6917.967,95.439,540.587,539.076,0.0
51892.0,STARLINK-3587,PAYLOAD,2024-05-19 03:11:19,15.08823852,0.000114,53.2176,79.9885,81.0098,279.1024,-9.6861e-05,-1.828e-05,0.0,0 STARLINK-3587,1 51892U 22022AS  24140.13286061 -.00001828  00000-0 -96861-4 0  9996,2 51892  53.2176  79.9885 0001140  81.0098 279.1024 15.08823852123675,6917.93,95.439,540.583,539.006,0.0
51892.0,STARLINK-3587,PAYLOAD,2024-05-19 20:40:33,15.08837387,0.0001119,53.2162,76.7135,53.64,306.4695,8.339e-05,1.04e-05,0.0,0 STARLINK-3587,1 51892U 22022AS  24140.86150005  .00001040  00000-0  83390-4 0  9991,2 51892  53.2162  76.7135 0001119  53.6400 306.4695 15.08837387123789,6917.888,95.438,540.527,538.979,0.0
51892.0,STARLINK-3587,PAYLOAD,2024-05-20 04:37:29,15.0884865,0.0001185,53.2169,75.2294,67.6058,292.506,0.00086385,0.0001349,0.0,0 STARLINK-3587,1 51892U 22022AS  24141.19270097  .00013490  00000-0  86385-3 0  9990,2 51892  53.2169  75.2294 0001185  67.6058 292.5060 15.08848650123835,6917.854,95.437,540.539,538.899,0.0
51892.0,STARLINK-3587,PAYLOAD,2024-05-21 04:28:16,15.08844914,0.0001139,53.2166,70.7677,63.5924,296.5185,0.00029261,4.373e-05,0.0,0 STARLINK-3587,1 51892U 22022AS  24142.18630185  .00004373  00000-0  29261-3 0  9998,2 51892  53.2166  70.7677 0001139  63.5924 296.5185 15.08844914123980,6917.865,95.437,540.518,538.942,0.0
51892.0,STARLINK-3587,PAYLOAD,2024-05-22 04:19:03,15.08854517,0.0001363,53.2176,66.305,69.3233,290.7905,0.00043649,6.668e-05,0.0,0 STARLINK-3587,1 51892U 22022AS  24143.17989851  .00006668  00000-0  43649-3 0  9990,2 51892  53.2176  66.3050 0001363  69.3233 290.7905 15.08854517124137,6917.836,95.437,540.644,538.758,0.0
51892.0,STARLINK-3587,PAYLOAD,2024-05-23 04:09:50,15.08843731,0.000113,53.2164,61.8421,123.2223,236.8878,2.8531e-05,1.66e-06,0.0,0 STARLINK-3587,1 51892U 22022AS  24144.17349807  .00000166  00000-0  28531-4 0  9993,2 51892  53.2164  61.8421 0001130 123.2223 236.8878 15.08843731124289,6917.869,95.437,540.516,538.952,0.0
51892.0,STARLINK-3587,PAYLOAD,2024-05-23 21:39:04,15.08842344,0.0001375,53.217,58.572,131.7508,228.3602,1.8567e-05,8e-08,0.0,0 STARLINK-3587,1 51892U 22022AS  24144.90213877  .00000008  00000-0  18567-4 0  9994,2 51892  53.2170  58.5720 0001375 131.7508 228.3602 15.08842344124394,6917.873,95.437,540.689,538.787,0.0
51892.0,STARLINK-3587,PAYLOAD,2024-05-24 04:00:37,15.08849795,0.00013,53.217,57.3835,115.7407,244.372,7.7695e-05,9.49e-06,0.0,0 STARLINK-3587,1 51892U 22022AS  24145.16709553  .00000949  00000-0  77695-4 0  9995,2 51892  53.2170  57.3835 0001300 115.7407 244.3720 15.08849795124437,6917.85,95.437,540.615,538.816,0.0
51892.0,STARLINK-3587,PAYLOAD,2024-05-24 21:29:52,15.08836818,0.0001419,53.217,54.1101,119.4629,240.6505,0.0001021,1.337e-05,0.0,0 STARLINK-3587,1 51892U 22022AS  24145.89574284  .00001337  00000-0  10210-3 0  9997,2 51892  53.2170  54.1101 0001419 119.4629 240.6505 15.08836818124540,6917.89,95.438,540.737,538.773,0.0
51892.0,STARLINK-3587,PAYLOAD,2024-05-25 10:12:57,15.08845892,0.0001346,53.2172,51.7385,108.8015,251.3124,7.1945e-05,8.57e-06,0.0,0 STARLINK-3587,1 51892U 22022AS  24146.42566067  .00000857  00000-0  71945-4 0  9996,2 51892  53.2172  51.7385 0001346 108.8015 251.3124 15.08845892124626,6917.862,95.437,540.659,538.796,0.0
51892.0,STARLINK-3587,PAYLOAD,2024-05-25 21:20:39,15.08836727,0.0001189,53.2178,49.6551,100.0891,260.0235,8.288e-07,-2.75e-06,0.0,0 STARLINK-3587,1 51892U 22022AS  24146.88935027 -.00000275  00000-0  82880-6 0  9999,2 51892  53.2178  49.6551 0001189 100.0891 260.0235 15.08836727124698,6917.89,95.438,540.578,538.933,0.0
51892.0,STARLINK-3587,PAYLOAD,2024-05-26 00:31:25,15.0883993,0.00012,53.2179,49.0615,96.657,263.4559,2.7845e-05,1.55e-06,0.0,0 STARLINK-3587,1 51892U 22022AS  24147.02182808  .00000155  00000-0  27845-4 0  9991,2 51892  53.2179  49.0615 0001200  96.6570 263.4559 15.08839930124710,6917.881,95.438,540.576,538.915,0.0
